[
    {
        "Altitude(m)": 567696.8209431116,
        "Argument of Periapsis(deg)": -0.015068773855314936,
        "Eccentricity": 0.0,
        "Inclination(deg)": 97.0,
        "Latitude(deg)": -7.394202397909144,
        "Longitude(deg)": -70.64497540362372,
        "Mean Anomaly(deg)": -7.26640448720833,
        "RAAN(deg)": 30.003964702412336,
        "Satellite Name": "Starlink Shell 3 1695",
        "Satellite Number": 1695,
        "Semi-Major Axis(m)": 6938478.169268562,
        "Time(s)": 380
    },
    {
        "Altitude(m)": 567568.1910400335,
        "Argument of Periapsis(deg)": -0.015465320535717962,
        "Eccentricity": 0.0,
        "Inclination(deg)": 97.0,
        "Latitude(deg)": -6.770166180484552,
        "Longitude(deg)": -70.76404130199722,
        "Mean Anomaly(deg)": -6.640928289503275,
        "RAAN(deg)": 30.004069036686346,
        "Satellite Name": "Starlink Shell 3 1695",
        "Satellite Number": 1695,
        "Semi-Major Axis(m)": 6938478.169268562,
        "Time(s)": 390
    },
    {
        "Altitude(m)": 567443.6279159811,
        "Argument of Periapsis(deg)": -0.015861867216120987,
        "Eccentricity": 0.0,
        "Inclination(deg)": 97.0,
        "Latitude(deg)": -6.1460829115771025,
        "Longitude(deg)": -70.88291177481776,
        "Mean Anomaly(deg)": -6.015452091798265,
        "RAAN(deg)": 30.004173370960352,
        "Satellite Name": "Starlink Shell 3 1695",
        "Satellite Number": 1695,
        "Semi-Major Axis(m)": 6938478.169268562,
        "Time(s)": 400
    },
    {
        "Altitude(m)": 567323.1627455511,
        "Argument of Periapsis(deg)": -0.01625841389652401,
        "Eccentricity": 0.0,
        "Inclination(deg)": 97.0,
        "Latitude(deg)": -5.521955569621522,
        "Longitude(deg)": -71.0016052502621,
        "Mean Anomaly(deg)": -5.389975894093208,
        "RAAN(deg)": 30.00427770523436,
        "Satellite Name": "Starlink Shell 3 1695",
        "Satellite Number": 1695,
        "Semi-Major Axis(m)": 6938478.169268562,
        "Time(s)": 410
    },
    {
        "Altitude(m)": 567206.8246914459,
        "Argument of Periapsis(deg)": -0.016654960576927034,
        "Eccentricity": 0.0,
        "Inclination(deg)": 97.0,
        "Latitude(deg)": -4.89778713420295,
        "Longitude(deg)": -71.12014049413314,
        "Mean Anomaly(deg)": -4.764499696388153,
        "RAAN(deg)": 30.00438203950838,
        "Satellite Name": "Starlink Shell 3 1695",
        "Satellite Number": 1695,
        "Semi-Major Axis(m)": 6938478.169268562,
        "Time(s)": 420
    },
    {
        "Altitude(m)": 567094.640893041,
        "Argument of Periapsis(deg)": -0.01705150725733006,
        "Eccentricity": 0.0,
        "Inclination(deg)": 97.0,
        "Latitude(deg)": -4.273580586243703,
        "Longitude(deg)": -71.23853612363293,
        "Mean Anomaly(deg)": -4.139023498683091,
        "RAAN(deg)": 30.004486373782377,
        "Satellite Name": "Starlink Shell 3 1695",
        "Satellite Number": 1695,
        "Semi-Major Axis(m)": 6938478.169268562,
        "Time(s)": 430
    },
    {
        "Altitude(m)": 566986.6364559227,
        "Argument of Periapsis(deg)": -0.017448053937733084,
        "Eccentricity": 0.0,
        "Inclination(deg)": 97.0,
        "Latitude(deg)": -3.649338908166459,
        "Longitude(deg)": -71.35681012083977,
        "Mean Anomaly(deg)": -3.5135473009780362,
        "RAAN(deg)": 30.004590708056394,
        "Satellite Name": "Starlink Shell 3 1695",
        "Satellite Number": 1695,
        "Semi-Major Axis(m)": 6938478.169268562,
        "Time(s)": 440
    },
    {
        "Altitude(m)": 566882.8344425029,
        "Argument of Periapsis(deg)": -0.017844600618136107,
        "Eccentricity": 0.0,
        "Inclination(deg)": 97.0,
        "Latitude(deg)": -3.025065084036955,
        "Longitude(deg)": -71.47498085879893,
        "Mean Anomaly(deg)": -2.888071103273031,
        "RAAN(deg)": 30.004695042330404,
        "Satellite Name": "Starlink Shell 3 1695",
        "Satellite Number": 1695,
        "Semi-Major Axis(m)": 6938478.169268562,
        "Time(s)": 450
    },
    {
        "Altitude(m)": 566783.2558636632,
        "Argument of Periapsis(deg)": -0.018241147298539134,
        "Eccentricity": 0.0,
        "Inclination(deg)": 97.0,
        "Latitude(deg)": -2.400762099687524,
        "Longitude(deg)": -71.59306661451564,
        "Mean Anomaly(deg)": -2.2625949055679695,
        "RAAN(deg)": 30.00479937660441,
        "Satellite Name": "Starlink Shell 3 1695",
        "Satellite Number": 1695,
        "Semi-Major Axis(m)": 6938478.169268562,
        "Time(s)": 460
    },
    {
        "Altitude(m)": 566687.9196714062,
        "Argument of Periapsis(deg)": -0.018637693978942157,
        "Eccentricity": 0.0,
        "Inclination(deg)": 97.0,
        "Latitude(deg)": -1.7764329428255543,
        "Longitude(deg)": -71.71108508175914,
        "Mean Anomaly(deg)": -1.6371187078629141,
        "RAAN(deg)": 30.00490371087842,
        "Satellite Name": "Starlink Shell 3 1695",
        "Satellite Number": 1695,
        "Semi-Major Axis(m)": 6938478.169268562,
        "Time(s)": 470
    },
    {
        "Altitude(m)": 566596.8427525942,
        "Argument of Periapsis(deg)": -0.019034240659345183,
        "Eccentricity": 0.0,
        "Inclination(deg)": 97.0,
        "Latitude(deg)": -1.1520806031289654,
        "Longitude(deg)": -71.82905439658482,
        "Mean Anomaly(deg)": -1.0116425101578588,
        "RAAN(deg)": 30.00500804515243,
        "Satellite Name": "Starlink Shell 3 1695",
        "Satellite Number": 1695,
        "Semi-Major Axis(m)": 6938478.169268562,
        "Time(s)": 480
    },
    {
        "Altitude(m)": 566510.0399237183,
        "Argument of Periapsis(deg)": -0.019430787339748207,
        "Eccentricity": 0.0,
        "Inclination(deg)": 97.0,
        "Latitude(deg)": -0.5277080723310447,
        "Longitude(deg)": -71.9469926498614,
        "Mean Anomaly(deg)": -0.3861663124527939,
        "RAAN(deg)": 30.005112379426436,
        "Satellite Name": "Starlink Shell 3 1695",
        "Satellite Number": 1695,
        "Semi-Major Axis(m)": 6938478.169268562,
        "Time(s)": 490
    },
    {
        "Altitude(m)": 566427.5239267293,
        "Argument of Periapsis(deg)": -0.019827334020151237,
        "Eccentricity": 0.0,
        "Inclination(deg)": 97.0,
        "Latitude(deg)": 0.09668165570245112,
        "Longitude(deg)": -72.06491739971007,
        "Mean Anomaly(deg)": 0.23930988525220748,
        "RAAN(deg)": 30.005216713700445,
        "Satellite Name": "Starlink Shell 3 1695",
        "Satellite Number": 1695,
        "Semi-Major Axis(m)": 6938478.169268562,
        "Time(s)": 500
    },
    {
        "Altitude(m)": 566349.305425904,
        "Argument of Periapsis(deg)": -0.020223880700554257,
        "Eccentricity": 0.0,
        "Inclination(deg)": 97.0,
        "Latitude(deg)": 0.7210855849010789,
        "Longitude(deg)": -72.1828466967616,
        "Mean Anomaly(deg)": 0.8647860829572153,
        "RAAN(deg)": 30.005321047974455,
        "Satellite Name": "Starlink Shell 3 1695",
        "Satellite Number": 1695,
        "Semi-Major Axis(m)": 6938478.169268562,
        "Time(s)": 510
    },
    {
        "Altitude(m)": 566275.3930058075,
        "Argument of Periapsis(deg)": -0.020620427380957283,
        "Eccentricity": 0.0,
        "Inclination(deg)": 97.0,
        "Latitude(deg)": 1.3455007169203541,
        "Longitude(deg)": -72.30079859651748,
        "Mean Anomaly(deg)": 1.4902622806622738,
        "RAAN(deg)": 30.00542538224846,
        "Satellite Name": "Starlink Shell 3 1695",
        "Satellite Number": 1695,
        "Semi-Major Axis(m)": 6938478.169268562,
        "Time(s)": 520
    },
    {
        "Altitude(m)": 566205.7931702626,
        "Argument of Periapsis(deg)": -0.021016974061360306,
        "Eccentricity": 0.0,
        "Inclination(deg)": 97.0,
        "Latitude(deg)": 1.9699240510724152,
        "Longitude(deg)": -72.41879067172155,
        "Mean Anomaly(deg)": 2.1157384783673323,
        "RAAN(deg)": 30.00552971652247,
        "Satellite Name": "Starlink Shell 3 1695",
        "Satellite Number": 1695,
        "Semi-Major Axis(m)": 6938478.169268562,
        "Time(s)": 530
    },
    {
        "Altitude(m)": 566140.5103424189,
        "Argument of Periapsis(deg)": -0.021413520741763333,
        "Eccentricity": 0.0,
        "Inclination(deg)": 97.0,
        "Latitude(deg)": 2.5943525842539272,
        "Longitude(deg)": -72.53684103764749,
        "Mean Anomaly(deg)": 2.7412146760723846,
        "RAAN(deg)": 30.005634050796484,
        "Satellite Name": "Starlink Shell 3 1695",
        "Satellite Number": 1695,
        "Semi-Major Axis(m)": 6938478.169268562,
        "Time(s)": 540
    },
    {
        "Altitude(m)": 566079.546865869,
        "Argument of Periapsis(deg)": -0.021810067422166356,
        "Eccentricity": 0.0,
        "Inclination(deg)": 97.0,
        "Latitude(deg)": 3.218783310869096,
        "Longitude(deg)": -72.65496786458893,
        "Mean Anomaly(deg)": 3.366690873777399,
        "RAAN(deg)": 30.005738385070487,
        "Satellite Name": "Starlink Shell 3 1695",
        "Satellite Number": 1695,
        "Semi-Major Axis(m)": 6938478.169268562,
        "Time(s)": 550
    },
    {
        "Altitude(m)": 566022.903006802,
        "Argument of Periapsis(deg)": -0.022206614102569383,
        "Eccentricity": 0.0,
        "Inclination(deg)": 97.0,
        "Latitude(deg)": 3.8432132227452773,
        "Longitude(deg)": -72.77318889045864,
        "Mean Anomaly(deg)": 3.9921670714824513,
        "RAAN(deg)": 30.0058427193445,
        "Satellite Name": "Starlink Shell 3 1695",
        "Satellite Number": 1695,
        "Semi-Major Axis(m)": 6938478.169268562,
        "Time(s)": 560
    }
]